CCSDS_OMM_VERS = 2.0
CREATION_DATE  = 
ORIGINATOR     = 

OBJECT_NAME    = SL-16 R/B
OBJECT_ID      = 1998-043G
CENTER_NAME    = EARTH
REF_FRAME      = TEME
TIME_SYSTEM    = UTC
MEAN_ELEMENT_THEORY = SGP/SGP4

EPOCH          = 2026-01-31T11:23:36.016224
MEAN_MOTION    = 14.26040274
ECCENTRICITY   = .001074
INCLINATION    = 98.8193
RA_OF_ASC_NODE = 344.5891
ARG_OF_PERICENTER = 119.3316
MEAN_ANOMALY   = 240.8938

EPHEMERIS_TYPE = 0
CLASSIFICATION_TYPE = U
NORAD_CAT_ID   = 25400
ELEMENT_SET_NO = 999
REV_AT_EPOCH   = 43368
BSTAR          = .49497E-4
MEAN_MOTION_DOT = .73E-6
MEAN_MOTION_DDOT = 0

CCSDS_OMM_VERS = 2.0
CREATION_DATE  = 
ORIGINATOR     = 

OBJECT_NAME    = SL-16 R/B
OBJECT_ID      = 1998-045B
CENTER_NAME    = EARTH
REF_FRAME      = TEME
TIME_SYSTEM    = UTC
MEAN_ELEMENT_THEORY = SGP/SGP4

EPOCH          = 2026-01-31T01:36:25.555680
MEAN_MOTION    = 14.16186758
ECCENTRICITY   = .00050761
INCLINATION    = 71.0097
RA_OF_ASC_NODE = 260.6945
ARG_OF_PERICENTER = 79.4526
MEAN_ANOMALY   = 280.7169

EPHEMERIS_TYPE = 0
CLASSIFICATION_TYPE = U
NORAD_CAT_ID   = 25407
ELEMENT_SET_NO = 999
REV_AT_EPOCH   = 42177
BSTAR          = -.5670693E-4
MEAN_MOTION_DOT = -.16E-5
MEAN_MOTION_DDOT = 0

CCSDS_OMM_VERS = 2.0
CREATION_DATE  = 
ORIGINATOR     = 

OBJECT_NAME    = ISS (ZARYA)
OBJECT_ID      = 1998-067A
CENTER_NAME    = EARTH
REF_FRAME      = TEME
TIME_SYSTEM    = UTC
MEAN_ELEMENT_THEORY = SGP/SGP4

EPOCH          = 2026-01-31T09:40:46.607808
MEAN_MOTION    = 15.48303150
ECCENTRICITY   = .0011101
INCLINATION    = 51.6321
RA_OF_ASC_NODE = 256.6752
ARG_OF_PERICENTER = 49.6310
MEAN_ANOMALY   = 310.5645

EPHEMERIS_TYPE = 0
CLASSIFICATION_TYPE = U
NORAD_CAT_ID   = 25544
ELEMENT_SET_NO = 999
REV_AT_EPOCH   = 55055
BSTAR          = .13993E-3
MEAN_MOTION_DOT = .7093E-4
MEAN_MOTION_DDOT = 0

CCSDS_OMM_VERS = 2.0
CREATION_DATE  = 
ORIGINATOR     = 

OBJECT_NAME    = CZ-4B R/B
OBJECT_ID      = 1999-025C
CENTER_NAME    = EARTH
REF_FRAME      = TEME
TIME_SYSTEM    = UTC
MEAN_ELEMENT_THEORY = SGP/SGP4

EPOCH          = 2026-01-31T02:58:38.803872
MEAN_MOTION    = 14.18257318
ECCENTRICITY   = .00381701
INCLINATION    = 98.6699
RA_OF_ASC_NODE = 76.2829
ARG_OF_PERICENTER = 93.0300
MEAN_ANOMALY   = 279.4747

EPHEMERIS_TYPE = 0
CLASSIFICATION_TYPE = U
NORAD_CAT_ID   = 25732
ELEMENT_SET_NO = 999
REV_AT_EPOCH   = 38284
BSTAR          = .52091877E-4
MEAN_MOTION_DOT = .65E-6
MEAN_MOTION_DDOT = 0

CCSDS_OMM_VERS = 2.0
CREATION_DATE  = 
ORIGINATOR     = 

OBJECT_NAME    = OKEAN-O
OBJECT_ID      = 1999-039A
CENTER_NAME    = EARTH
REF_FRAME      = TEME
TIME_SYSTEM    = UTC
MEAN_ELEMENT_THEORY = SGP/SGP4

EPOCH          = 2026-01-31T03:17:02.971680
MEAN_MOTION    = 14.80269943
ECCENTRICITY   = .00019046
INCLINATION    = 97.9523
RA_OF_ASC_NODE = 91.3948
ARG_OF_PERICENTER = 93.4383
MEAN_ANOMALY   = 266.7047

EPHEMERIS_TYPE = 0
CLASSIFICATION_TYPE = U
NORAD_CAT_ID   = 25860
ELEMENT_SET_NO = 999
REV_AT_EPOCH   = 42883
BSTAR          = .12673979E-3
MEAN_MOTION_DOT = .913E-5
MEAN_MOTION_DDOT = 0

CCSDS_OMM_VERS = 2.0
CREATION_DATE  = 
ORIGINATOR     = 

OBJECT_NAME    = SL-16 R/B
OBJECT_ID      = 1999-039B
CENTER_NAME    = EARTH
REF_FRAME      = TEME
TIME_SYSTEM    = UTC
MEAN_ELEMENT_THEORY = SGP/SGP4

EPOCH          = 2026-01-31T03:39:13.472064
MEAN_MOTION    = 14.81675058
ECCENTRICITY   = .00152992
INCLINATION    = 98.0046
RA_OF_ASC_NODE = 90.2892
ARG_OF_PERICENTER = 24.2493
MEAN_ANOMALY   = 335.9436

EPHEMERIS_TYPE = 0
CLASSIFICATION_TYPE = U
NORAD_CAT_ID   = 25861
ELEMENT_SET_NO = 999
REV_AT_EPOCH   = 43130
BSTAR          = .10059425E-3
MEAN_MOTION_DOT = .739E-5
MEAN_MOTION_DDOT = 0

CCSDS_OMM_VERS = 2.0
CREATION_DATE  = 
ORIGINATOR     = 

OBJECT_NAME    = DELTA 2 R/B
OBJECT_ID      = 1999-041E
CENTER_NAME    = EARTH
REF_FRAME      = TEME
TIME_SYSTEM    = UTC
MEAN_ELEMENT_THEORY = SGP/SGP4

EPOCH          = 2026-01-31T09:59:54.748896
MEAN_MOTION    = 14.11674733
ECCENTRICITY   = .0502662
INCLINATION    = 51.7643
RA_OF_ASC_NODE = 90.1210
ARG_OF_PERICENTER = 238.2971
MEAN_ANOMALY   = 116.8024

EPHEMERIS_TYPE = 0
CLASSIFICATION_TYPE = U
NORAD_CAT_ID   = 25876
ELEMENT_SET_NO = 999
REV_AT_EPOCH   = 35776
BSTAR          = .39385E-3
MEAN_MOTION_DOT = .2216E-4
MEAN_MOTION_DDOT = 0

CCSDS_OMM_VERS = 2.0
CREATION_DATE  = 
ORIGINATOR     = 

OBJECT_NAME    = HELIOS 1B
OBJECT_ID      = 1999-064A
CENTER_NAME    = EARTH
REF_FRAME      = TEME
TIME_SYSTEM    = UTC
MEAN_ELEMENT_THEORY = SGP/SGP4

EPOCH          = 2026-01-31T07:34:51.924000
MEAN_MOTION    = 14.87535518
ECCENTRICITY   = .0001663
INCLINATION    = 98.1738
RA_OF_ASC_NODE = 292.4545
ARG_OF_PERICENTER = 125.3157
MEAN_ANOMALY   = 234.8214

EPHEMERIS_TYPE = 0
CLASSIFICATION_TYPE = U
NORAD_CAT_ID   = 25977
ELEMENT_SET_NO = 999
REV_AT_EPOCH   = 67970
BSTAR          = .23568E-3
MEAN_MOTION_DOT = .208E-4
MEAN_MOTION_DDOT = 0

CCSDS_OMM_VERS = 2.0
CREATION_DATE  = 
ORIGINATOR     = 

OBJECT_NAME    = TERRA
OBJECT_ID      = 1999-068A
CENTER_NAME    = EARTH
REF_FRAME      = TEME
TIME_SYSTEM    = UTC
MEAN_ELEMENT_THEORY = SGP/SGP4

EPOCH          = 2026-01-31T11:16:55.286112
MEAN_MOTION    = 14.60971716
ECCENTRICITY   = .0001208
INCLINATION    = 97.9671
RA_OF_ASC_NODE = 86.3118
ARG_OF_PERICENTER = 326.9478
MEAN_ANOMALY   = 157.4645

EPHEMERIS_TYPE = 0
CLASSIFICATION_TYPE = U
NORAD_CAT_ID   = 25994
ELEMENT_SET_NO = 999
REV_AT_EPOCH   = 38964
BSTAR          = .12859E-3
MEAN_MOTION_DOT = .586E-5
MEAN_MOTION_DDOT = 0

CCSDS_OMM_VERS = 2.0
CREATION_DATE  = 
ORIGINATOR     = 

OBJECT_NAME    = SL-16 R/B
OBJECT_ID      = 2000-006B
CENTER_NAME    = EARTH
REF_FRAME      = TEME
TIME_SYSTEM    = UTC
MEAN_ELEMENT_THEORY = SGP/SGP4

EPOCH          = 2026-01-31T11:54:57.536064
MEAN_MOTION    = 14.15818426
ECCENTRICITY   = .0018528
INCLINATION    = 71.0023
RA_OF_ASC_NODE = 176.0388
ARG_OF_PERICENTER = 241.7897
MEAN_ANOMALY   = 118.1356

EPHEMERIS_TYPE = 0
CLASSIFICATION_TYPE = U
NORAD_CAT_ID   = 26070
ELEMENT_SET_NO = 999
REV_AT_EPOCH   = 34329
BSTAR          = .15066E-3
MEAN_MOTION_DOT = .249E-5
MEAN_MOTION_DDOT = 0

CCSDS_OMM_VERS = 2.0
CREATION_DATE  = 
ORIGINATOR     = 

OBJECT_NAME    = TITAN 4B R/B
OBJECT_ID      = 2000-047B
CENTER_NAME    = EARTH
REF_FRAME      = TEME
TIME_SYSTEM    = UTC
MEAN_ELEMENT_THEORY = SGP/SGP4

EPOCH          = 2026-01-31T10:55:47.849952
MEAN_MOTION    = 15.09243744
ECCENTRICITY   = .0036652
INCLINATION    = 67.9899
RA_OF_ASC_NODE = 145.1851
ARG_OF_PERICENTER = 81.8847
MEAN_ANOMALY   = 278.6457

EPHEMERIS_TYPE = 0
CLASSIFICATION_TYPE = U
NORAD_CAT_ID   = 26474
ELEMENT_SET_NO = 999
REV_AT_EPOCH   = 38729
BSTAR          = .2401E-3
MEAN_MOTION_DOT = .3755E-4
MEAN_MOTION_DDOT = 0

CCSDS_OMM_VERS = 2.0
CREATION_DATE  = 
ORIGINATOR     = 

OBJECT_NAME    = ENVISAT
OBJECT_ID      = 2002-009A
CENTER_NAME    = EARTH
REF_FRAME      = TEME
TIME_SYSTEM    = UTC
MEAN_ELEMENT_THEORY = SGP/SGP4

EPOCH          = 2026-01-31T11:48:45.029376
MEAN_MOTION    = 14.39022089
ECCENTRICITY   = .0001236
INCLINATION    = 98.3667
RA_OF_ASC_NODE = 345.9901
ARG_OF_PERICENTER = 92.4850
MEAN_ANOMALY   = 20.5037

EPHEMERIS_TYPE = 0
CLASSIFICATION_TYPE = U
NORAD_CAT_ID   = 27386
ELEMENT_SET_NO = 999
REV_AT_EPOCH   = 25382
BSTAR          = .62962E-4
MEAN_MOTION_DOT = .152E-5
MEAN_MOTION_DDOT = 0

