SL-16 R/B               
1 25400U 98043G   26031.47472241  .00000073  00000+0  49497-4 0  9994
2 25400  98.8193 344.5891 0010740 119.3316 240.8938 14.26040274433689
SL-16 R/B               
1 25407U 98045B   26031.06696245 -.00000160  00000+0 -56707-4 0  9991
2 25407  71.0097 260.6945 0005076  79.4526 280.7169 14.16186758421778
ISS (ZARYA)             
1 25544U 98067A   26031.40331722  .00007093  00000+0  13993-3 0  9990
2 25544  51.6321 256.6752 0011101  49.6310 310.5645 15.48303150550554
CZ-4B R/B               
1 25732U 99025C   26031.12406023  .00000065  00000+0  52092-4 0  9996
2 25732  98.6699  76.2829 0038170  93.0300 279.4747 14.18257318382841
OKEAN-O                 
1 25860U 99039A   26031.13683995  .00000913  00000+0  12674-3 0  9992
2 25860  97.9523  91.3948 0001904  93.4383 266.7047 14.80269943428839
SL-16 R/B               
1 25861U 99039B   26031.15223926  .00000739  00000+0  10059-3 0  9990
2 25861  98.0046  90.2892 0015299  24.2493 335.9436 14.81675058431300
DELTA 2 R/B             
1 25876U 99041E   26031.41660589  .00002216  00000+0  39385-3 0  9993
2 25876  51.7643  90.1210 0502662 238.2971 116.8024 14.11674733357769
HELIOS 1B               
1 25977U 99064A   26031.31587875  .00002080  00000+0  23568-3 0  9990
2 25977  98.1738 292.4545 0001663 125.3157 234.8214 14.87535518679709
TERRA                   
1 25994U 99068A   26031.47008433  .00000586  00000+0  12859-3 0  9998
2 25994  97.9671  86.3118 0001208 326.9478 157.4645 14.60971716389641
SL-16 R/B               
1 26070U 00006B   26031.49649926  .00000249  00000+0  15066-3 0  9997
2 26070  71.0023 176.0388 0018528 241.7897 118.1356 14.15818426343291
TITAN 4B R/B            
1 26474U 00047B   26031.45541493  .00003755  00000+0  24010-3 0  9990
2 26474  67.9899 145.1851 0036652  81.8847 278.6457 15.09243744387293
ENVISAT                 
1 27386U 02009A   26031.49218784  .00000152  00000+0  62962-4 0  9998
2 27386  98.3667 345.9901 0001236  92.4850  20.5037 14.39022089253823
